BEIDOU 3 (C01)          
1 36287U 10001A   22350.25118697 -.00000259  00000+0  00000+0 0  9994
2 36287   1.8316  50.8242 0002256 257.0923   7.7368  1.00266979 47339
BEIDOU 5 (C06)          
1 36828U 10036A   22350.14333378 -.00000026  00000+0  00000+0 0  9998
2 36828  54.1983 174.5704 0034248 182.2241 244.2167  1.00299056 45409
BEIDOU 6 (C04)          
1 37210U 10057A   22350.83628840 -.00000089  00000+0  00000+0 0  9993
2 37210   0.8737  48.6558 0006641 170.8282 326.9851  1.00270816 44468
BEIDOU 7 (C07)          
1 37256U 10068A   22350.55718133 -.00000196  00000+0  00000+0 0  9998
2 37256  49.8891 287.4648 0020806 206.2273 256.5169  1.00249461 43975
BEIDOU 8 (C08)          
1 37384U 11013A   22350.51606260 -.00000187  00000+0  00000+0 0  9994
2 37384  60.5548  52.4647 0024175 186.0218 138.9511  1.00259828 42849
BEIDOU 9 (C09)          
1 37763U 11038A   22350.50725244  .00000085  00000+0  00000+0 0  9991
2 37763  54.4776 177.0687 0101148 227.4426 317.5647  1.00285497 41823
BEIDOU 10 (C10)         
1 37948U 11073A   22350.86442249 -.00000156  00000+0  00000+0 0  9995
2 37948  50.0087 287.1134 0086187 220.8989 342.5107  1.00293008 40589
BEIDOU 11 (C05)         
1 38091U 12008A   22350.88786796  .00000081  00000+0  00000+0 0  9990
2 38091   1.9785  70.9254 0009257 311.9343  80.9454  1.00272279 39661
BEIDOU 12 (C11)         
1 38250U 12018A   22350.40549051 -.00000059  00000+0  00000+0 0  9993
2 38250  56.6332 347.5463 0025144 256.7832 264.7615  1.86234345 72473
BEIDOU 13 (C12)         
1 38251U 12018B   22350.20550056 -.00000059  00000+0  00000+0 0  9999
2 38251  56.5479 346.8655 0016020 259.2568 172.3115  1.86234118 72474
BEIDOU 15 (C14)         
1 38775U 12050B   22350.78696341  .00000021  00000+0  00000+0 0  9995
2 38775  55.5137 105.5515 0011014 329.2319 327.7030  1.86231147 69859
BEIDOU 16 (C02)         
1 38953U 12059A   22349.88868536 -.00000155  00000+0  00000+0 0  9997
2 38953   1.3725  82.1090 0008558 292.1876 114.2114  1.00276641 37224
BEIDOU 17 (C31)         
1 40549U 15019A   22350.86419580 -.00000160  00000+0  00000+0 0  9997
2 40549  51.5721 310.6299 0037200 200.6905 338.4398  1.00257742 28263
BEIDOU 18 (C57)         
1 40748U 15037A   22350.29357360 -.00000061  00000+0  00000+0 0  9992
2 40748  55.7955 345.6172 0003195 327.8121  72.0220  1.86233286 50301
BEIDOU 19 (C58)         
1 40749U 15037B   22350.08993862 -.00000061  00000+0  00000+0 0  9993
2 40749  55.8031 345.6139 0006062 302.3990  94.9859  1.86232923 50295
BEIDOU 20 (C18)         
1 40938U 15053A   22350.43061757 -.00000123  00000+0  00000+0 0  9998
2 40938  51.2201 273.7806 0044159 199.1479 219.5816  1.00252530 26539
BEIDOU IGSO-6 (C13)     
1 41434U 16021A   22350.57793236 -.00000160  00000+0  00000+0 0  9996
2 41434  58.3664  50.9591 0049521 221.3378 115.5020  1.00290053 24657
BEIDOU-2 G7 (C03)       
1 41586U 16037A   22350.87931510 -.00000330  00000+0  00000+0 0  9992
2 41586   1.7845  69.7661 0007453 349.1273  93.6379  1.00276984 23979
BEIDOU-3 M1 (C19)       
1 43001U 17069A   22349.60527434  .00000024  00000+0  00000+0 0  9996
2 43001  55.6655 105.6155 0008022 285.8786  95.2129  1.86231606 34773
BEIDOU-3 M2 (C20)       
1 43002U 17069B   22350.08410385  .00000023  00000+0  00000+0 0  9996
2 43002  55.6653 105.6355 0005465 315.2228  69.6911  1.86231237 34775
BEIDOU-3 M3 (C27)       
1 43107U 18003A   22350.55309416 -.00000062  00000+0  00000+0 0  9999
2 43107  55.2494 346.4451 0003126  45.2297 100.5507  1.86232717 33544
BEIDOU-3 M4 (C28)       
1 43108U 18003B   22350.53389098 -.00000062  00000+0  00000+0 0  9992
2 43108  55.2423 346.4342 0004658 259.5283 276.2357  1.86230876 33540
BEIDOU-3 M5 (C21)       
1 43207U 18018A   22350.17856252  .00000023  00000+0  00000+0 0  9995
2 43207  55.6241 105.7044 0003334 358.4880   1.4976  1.86231380 32926
BEIDOU-3 M6 (C22)       
1 43208U 18018B   22350.24522270  .00000023  00000+0  00000+0 0  9994
2 43208  55.6236 105.7070 0005571 298.9847  60.9475  1.86231504 32928
BEIDOU-3 M7 (C29)       
1 43245U 18029A   22350.74007980 -.00000061  00000+0  00000+0 0  9991
2 43245  55.1554 344.1946 0001798 266.8409 274.8747  1.86232571 32083
BEIDOU-3 M8 (C30)       
1 43246U 18029B   22350.66073715 -.00000061  00000+0  10000-3 0  9997
2 43246  55.1508 344.2264 0004159 337.6434 197.5611  1.86232773 32070
BEIDOU IGSO-7 (C16)     
1 43539U 18057A   22350.79855262 -.00000029  00000+0  00000+0 0  9991
2 43539  55.0892 174.1186 0051315 225.1476  86.0155  1.00254453 16337
BEIDOU-3 M9 (C23)       
1 43581U 18062A   22350.45502904  .00000051  00000+0  00000+0 0  9993
2 43581  54.2283 225.8596 0003100 313.3545 295.4346  1.86231940 29819
BEIDOU-3 M10 (C24)      
1 43582U 18062B   22350.31222280  .00000050  00000+0  00000+0 0  9994
2 43582  54.2275 225.8533 0006652  17.4217 227.5990  1.86231633 29815
BEIDOU-3 M11 (C25)      
1 43602U 18067A   22350.32806694  .00000053  00000+0  00000+0 0  9993
2 43602  54.3121 224.4843 0007946  15.7790 280.8395  1.86231503 29303
BEIDOU-3 M12 (C26)      
1 43603U 18067B   22350.32220277  .00000053  00000+0  00000+0 0  9991
2 43603  54.3098 224.4507 0004888  10.4742 192.5542  1.86231470 29323
BEIDOU-3 M13 (C32)      
1 43622U 18072A   22350.55339514  .00000021  00000+0  00000+0 0  9993
2 43622  55.5928 105.2402 0004628 276.0184 110.7679  1.86231370 28849
BEIDOU-3 M14 (C33)      
1 43623U 18072B   22349.95132550  .00000022  00000+0  00000+0 0  9998
2 43623  55.5943 105.2532 0002185 314.3994 118.9668  1.86231357 28834
BEIDOU-3 M15 (C34)      
1 43647U 18078A   22348.92615346 -.00000067  00000+0  10000-3 0  9990
2 43647  55.0510 344.3996 0006313 351.6318  10.2614  1.86232989 28327
BEIDOU-3 M16 (C35)      
1 43648U 18078B   22350.40241175 -.00000062  00000+0  00000+0 0  9992
2 43648  55.0462 344.3552 0003901 354.4664 184.6103  1.86232168 28369
BEIDOU-3 G1 (C59)       
1 43683U 18085A   22350.88198601 -.00000252  00000+0  00000+0 0  9997
2 43683   1.0169 149.6199 0003554 182.4065 211.0875  1.00273117 15243
BEIDOU-3 M17 (C36)      
1 43706U 18093A   22350.28549236  .00000050  00000+0  00000+0 0  9995
2 43706  54.3098 225.7637 0007699 290.0514  69.9502  1.86232049 27729
BEIDOU-3 M18 (C37)      
1 43707U 18093B   22350.52148903  .00000052  00000+0  00000+0 0  9991
2 43707  54.3107 225.7464 0007564 320.7244 288.8986  1.86232280 27715
BEIDOU-3 IGSO-1 (C38)   
1 44204U 19023A   22350.38272248 -.00000220  00000+0  00000+0 0  9990
2 44204  56.8236  51.0290 0024017 195.8515  92.9384  1.00255052 13538
BEIDOU-2 G8             
1 44231U 19027A   22350.90495230 -.00000223  00000+0  00000+0 0  9993
2 44231   1.3047  80.2902 0006090 136.7963 338.7713  1.00269883 13252
BEIDOU-3 IGSO-2 (C39)   
1 44337U 19035A   22349.41785431 -.00000045  00000+0  00000+0 0  9990
2 44337  55.1340 170.1157 0025929 188.3295 352.1392  1.00248553 12866
BEIDOU-3 M23 (C45)      
1 44542U 19061A   22350.75895720  .00000055  00000+0  00000+0 0  9999
2 44542  54.5364 225.9252 0008936 357.2319   2.8480  1.86231548 21981
BEIDOU-3 M24 (C46)      
1 44543U 19061B   22349.71724836  .00000044  00000+0  00000+0 0  9991
2 44543  54.5351 225.9298 0005919 346.8010 306.3919  1.86231876 21958
BEIDOU-3 IGSO-3         
1 44709U 19073A   22350.36235186 -.00000192  00000+0  10000-3 0  9996
2 44709  56.9729 294.4908 0026043 182.9444 215.3163  1.00253681 11624
BEIDOU-3 M21            
1 44793U 19078A   22349.79211623 -.00000064  00000+0  10000-3 0  9997
2 44793  54.8994 344.3703 0005773 357.6100 178.4705  1.86232174 20824
BEIDOU-3 M22            
1 44794U 19078B   22350.46917924 -.00000062  00000+0  00000+0 0  9994
2 44794  54.8720 344.3341 0004125 347.0596 194.9416  1.86232667 20832
BEIDOU-3 M19            
1 44864U 19090A   22350.01325619  .00000023  00000+0  00000+0 0  9997
2 44864  55.5268 105.4599 0015646 267.0568 163.5505  1.86231736 20417
BEIDOU-3 M20            
1 44865U 19090B   22350.31617767  .00000022  00000+0  00000+0 0  9998
2 44865  55.5287 105.4817 0013365 281.5531  81.9835  1.86231661 20392
BEIDOU-3 G2             
1 45344U 20017A   22350.82042438 -.00000118  00000+0  00000+0 0  9992
2 45344   1.9940   1.7380 0001698 216.6144 242.4884  1.00271110 10446
BEIDOU-3 G3             
1 45807U 20040A   22349.78452286 -.00000331  00000+0  00000+0 0  9998
2 45807   1.0470 310.8344 0009274 341.2559 185.1878  1.00272167  9252
